start=new Date('2022-02-19T00:00:00.000Z').valueOf();
sats=[{"PERIAPSIS":"546.117","ELEMENT_SET_NO":"999","LAUNCH_DATE":"2020-10-06","MEAN_MOTION_DDOT":"0.0000000000000","TIME_SYSTEM":"UTC","CENTER_NAME":"EARTH","FILE":"3307132","CLASSIFICATION_TYPE":"U","BSTAR":"0.00003790300000","OBJECT_NAME":"STARLINK-1687","TLE_LINE1":"1 46541U 20070K   22049.91366444  .00000283  00000-0  37903-4 0  9992","APOAPSIS":"548.290","COUNTRY_CODE":"US","NORAD_CAT_ID":"46541","ECCENTRICITY":"0.00015690","EPHEMERIS_TYPE":"0","DECAY_DATE":null,"ARG_OF_PERICENTER":"78.9032","RA_OF_ASC_NODE":"319.5892","SITE":"AFETR","MEAN_MOTION":"15.06403290","PERIOD":"95.592","MEAN_MOTION_DOT":"0.00000283","MEAN_ELEMENT_THEORY":"SGP4","RCS_SIZE":"LARGE","SEMIMAJOR_AXIS":"6925.338","INCLINATION":"53.0576","OBJECT_TYPE":"PAYLOAD","TLE_LINE2":"2 46541  53.0576 319.5892 0001569  78.9032 281.2133 15.06403290 76749","OBJECT_ID":"2020-070K","REV_AT_EPOCH":"7674","MEAN_ANOMALY":"281.2133","REF_FRAME":"TEME","GP_ID":"196332423","EPOCH":"2022-02-18T21:55:40.607616"},{"BSTAR":"0.00019872000000","FILE":"3307132","CLASSIFICATION_TYPE":"U","CENTER_NAME":"EARTH","DECAY_DATE":null,"ARG_OF_PERICENTER":"74.6417","COUNTRY_CODE":"US","ECCENTRICITY":"0.00016960","NORAD_CAT_ID":"46542","EPHEMERIS_TYPE":"0","APOAPSIS":"548.373","OBJECT_NAME":"STARLINK-1692","TLE_LINE1":"1 46542U 20070L   22049.84915330  .00002680  00000-0  19872-3 0  9996","ELEMENT_SET_NO":"999","PERIAPSIS":"546.024","TIME_SYSTEM":"UTC","MEAN_MOTION_DDOT":"0.0000000000000","LAUNCH_DATE":"2020-10-06","REV_AT_EPOCH":"7645","MEAN_ANOMALY":"285.4759","OBJECT_ID":"2020-070L","TLE_LINE2":"2 46542  53.0557 339.8823 0001696  74.6417 285.4759 15.06405063 76457","EPOCH":"2022-02-18T20:22:46.845120","GP_ID":"196333674","REF_FRAME":"TEME","MEAN_MOTION":"15.06405063","PERIOD":"95.592","SITE":"AFETR","RA_OF_ASC_NODE":"339.8823","INCLINATION":"53.0557","OBJECT_TYPE":"PAYLOAD","RCS_SIZE":"LARGE","SEMIMAJOR_AXIS":"6925.333","MEAN_ELEMENT_THEORY":"SGP4","MEAN_MOTION_DOT":"0.00002680"},{"TIME_SYSTEM":"UTC","MEAN_MOTION_DDOT":"0.0000000000000","LAUNCH_DATE":"2020-10-06","ELEMENT_SET_NO":"999","PERIAPSIS":"545.908","DECAY_DATE":null,"ARG_OF_PERICENTER":"52.6197","EPHEMERIS_TYPE":"0","COUNTRY_CODE":"US","ECCENTRICITY":"0.00018920","NORAD_CAT_ID":"46543","APOAPSIS":"548.529","TLE_LINE1":"1 46543U 20070M   22049.83440770 -.00002064  00000-0 -11971-3 0  9997","OBJECT_NAME":"STARLINK-1693","FILE":"3307132","CLASSIFICATION_TYPE":"U","BSTAR":"-0.00011971000000","CENTER_NAME":"EARTH","OBJECT_TYPE":"PAYLOAD","INCLINATION":"53.0552","SEMIMAJOR_AXIS":"6925.354","RCS_SIZE":"LARGE","MEAN_MOTION_DOT":"-0.00002064","MEAN_ELEMENT_THEORY":"SGP4","PERIOD":"95.592","MEAN_MOTION":"15.06398381","SITE":"AFETR","RA_OF_ASC_NODE":"339.9399","EPOCH":"2022-02-18T20:01:32.825280","REF_FRAME":"TEME","GP_ID":"196333422","REV_AT_EPOCH":"7645","MEAN_ANOMALY":"307.4964","OBJECT_ID":"2020-070M","TLE_LINE2":"2 46543  53.0552 339.9399 0001892  52.6197 307.4964 15.06398381 76458"},{"EPOCH":"2022-02-18T21:31:07.066848","REF_FRAME":"TEME","GP_ID":"196332673","OBJECT_ID":"2020-070N","MEAN_ANOMALY":"296.8164","REV_AT_EPOCH":"7667","TLE_LINE2":"2 46544  53.0554 324.6720 0001991  63.3029 296.8164 15.06415081 76677","SEMIMAJOR_AXIS":"6925.302","RCS_SIZE":"LARGE","OBJECT_TYPE":"PAYLOAD","INCLINATION":"53.0554","MEAN_ELEMENT_THEORY":"SGP4","MEAN_MOTION_DOT":"0.00001865","PERIOD":"95.591","MEAN_MOTION":"15.06415081","RA_OF_ASC_NODE":"324.6720","SITE":"AFETR","EPHEMERIS_TYPE":"0","COUNTRY_CODE":"US","NORAD_CAT_ID":"46544","ECCENTRICITY":"0.00019910","DECAY_DATE":null,"ARG_OF_PERICENTER":"63.3029","TLE_LINE1":"1 46544U 20070N   22049.89660957  .00001865  00000-0  14399-3 0  9998","OBJECT_NAME":"STARLINK-1694","APOAPSIS":"548.546","CENTER_NAME":"EARTH","BSTAR":"0.00014399000000","FILE":"3307132","CLASSIFICATION_TYPE":"U","TIME_SYSTEM":"UTC","LAUNCH_DATE":"2020-10-06","MEAN_MOTION_DDOT":"0.0000000000000","ELEMENT_SET_NO":"999","PERIAPSIS":"545.789"},{"APOAPSIS":"548.347","TLE_LINE1":"1 46545U 20070P   22049.80491994  .00002855  00000-0  21039-3 0  9992","OBJECT_NAME":"STARLINK-1696","DECAY_DATE":null,"ARG_OF_PERICENTER":"72.6824","EPHEMERIS_TYPE":"0","ECCENTRICITY":"0.00016900","COUNTRY_CODE":"US","NORAD_CAT_ID":"46545","FILE":"3307132","CLASSIFICATION_TYPE":"U","BSTAR":"0.00021039000000","CENTER_NAME":"EARTH","MEAN_MOTION_DDOT":"0.0000000000000","LAUNCH_DATE":"2020-10-06","TIME_SYSTEM":"UTC","PERIAPSIS":"546.006","ELEMENT_SET_NO":"999","GP_ID":"196332923","REF_FRAME":"TEME","EPOCH":"2022-02-18T19:19:05.082816","TLE_LINE2":"2 46545  53.0558 340.0922 0001690  72.6824 287.4350 15.06412043 76443","MEAN_ANOMALY":"287.4350","REV_AT_EPOCH":"7644","OBJECT_ID":"2020-070P","MEAN_ELEMENT_THEORY":"SGP4","MEAN_MOTION_DOT":"0.00002855","OBJECT_TYPE":"PAYLOAD","INCLINATION":"53.0558","SEMIMAJOR_AXIS":"6925.312","RCS_SIZE":"LARGE","SITE":"AFETR","RA_OF_ASC_NODE":"340.0922","PERIOD":"95.591","MEAN_MOTION":"15.06412043"},{"FILE":"3307132","CLASSIFICATION_TYPE":"U","BSTAR":"0.00035168000000","CENTER_NAME":"EARTH","APOAPSIS":"548.386","TLE_LINE1":"1 46546U 20070Q   22049.79017903  .00004961  00000-0  35168-3 0  9993","OBJECT_NAME":"STARLINK-1697","DECAY_DATE":null,"ARG_OF_PERICENTER":"62.6420","EPHEMERIS_TYPE":"0","COUNTRY_CODE":"US","ECCENTRICITY":"0.00017230","NORAD_CAT_ID":"46546","PERIAPSIS":"545.999","ELEMENT_SET_NO":"999","MEAN_MOTION_DDOT":"0.0000000000000","LAUNCH_DATE":"2020-10-06","TIME_SYSTEM":"UTC","TLE_LINE2":"2 46546  53.0555 340.1401 0001723  62.6420 297.4744 15.06406919 76445","MEAN_ANOMALY":"297.4744","REV_AT_EPOCH":"7644","OBJECT_ID":"2020-070Q","REF_FRAME":"TEME","GP_ID":"196333175","EPOCH":"2022-02-18T18:57:51.468192","SITE":"AFETR","RA_OF_ASC_NODE":"340.1401","PERIOD":"95.592","MEAN_MOTION":"15.06406919","MEAN_ELEMENT_THEORY":"SGP4","MEAN_MOTION_DOT":"0.00004961","OBJECT_TYPE":"PAYLOAD","INCLINATION":"53.0555","SEMIMAJOR_AXIS":"6925.327","RCS_SIZE":"LARGE"},{"TIME_SYSTEM":"UTC","MEAN_MOTION_DDOT":"0.0000000000000","LAUNCH_DATE":"2020-10-06","ELEMENT_SET_NO":"999","PERIAPSIS":"545.954","DECAY_DATE":null,"ARG_OF_PERICENTER":"66.0132","COUNTRY_CODE":"US","ECCENTRICITY":"0.00018130","NORAD_CAT_ID":"46547","EPHEMERIS_TYPE":"0","APOAPSIS":"548.465","OBJECT_NAME":"STARLINK-1698","TLE_LINE1":"1 46547U 20070R   22049.81966485  .00002545  00000-0  18970-3 0  9993","FILE":"3307132","CLASSIFICATION_TYPE":"U","BSTAR":"0.00018970000000","CENTER_NAME":"EARTH","INCLINATION":"53.0552","OBJECT_TYPE":"PAYLOAD","RCS_SIZE":"LARGE","SEMIMAJOR_AXIS":"6925.345","MEAN_MOTION_DOT":"0.00002545","MEAN_ELEMENT_THEORY":"SGP4","MEAN_MOTION":"15.06401265","PERIOD":"95.592","SITE":"AFETR","RA_OF_ASC_NODE":"340.0122","EPOCH":"2022-02-18T19:40:19.043040","REF_FRAME":"TEME","GP_ID":"196333922","MEAN_ANOMALY":"294.1047","REV_AT_EPOCH":"7645","OBJECT_ID":"2020-070R","TLE_LINE2":"2 46547  53.0552 340.0122 0001813  66.0132 294.1047 15.06401265 76450"},{"MEAN_MOTION":"15.06385949","PERIOD":"95.593","SITE":"AFETR","RA_OF_ASC_NODE":"339.9706","INCLINATION":"53.0547","OBJECT_TYPE":"PAYLOAD","RCS_SIZE":"LARGE","SEMIMAJOR_AXIS":"6925.392","MEAN_MOTION_DOT":"-0.00006319","MEAN_ELEMENT_THEORY":"SGP4","REV_AT_EPOCH":"7645","MEAN_ANOMALY":"288.2298","OBJECT_ID":"2020-070S","TLE_LINE2":"2 46548  53.0547 339.9706 0001503  71.8854 288.2298 15.06385949 76453","EPOCH":"2022-02-18T19:56:14.346240","REF_FRAME":"TEME","GP_ID":"196332174","ELEMENT_SET_NO":"999","PERIAPSIS":"546.216","TIME_SYSTEM":"UTC","MEAN_MOTION_DDOT":"0.0000000000000","LAUNCH_DATE":"2020-10-06","BSTAR":"-0.00040583000000","FILE":"3307132","CLASSIFICATION_TYPE":"U","CENTER_NAME":"EARTH","ARG_OF_PERICENTER":"71.8854","DECAY_DATE":null,"ECCENTRICITY":"0.00015030","COUNTRY_CODE":"US","NORAD_CAT_ID":"46548","EPHEMERIS_TYPE":"0","APOAPSIS":"548.298","OBJECT_NAME":"STARLINK-1699","TLE_LINE1":"1 46548U 20070S   22049.83072160 -.00006319  00000-0 -40583-3 0  9994"},{"ELEMENT_SET_NO":"999","PERIAPSIS":"546.168","TIME_SYSTEM":"UTC","LAUNCH_DATE":"2020-10-06","MEAN_MOTION_DDOT":"0.0000000000000","CENTER_NAME":"EARTH","FILE":"3306500","BSTAR":"0.00037870000000","CLASSIFICATION_TYPE":"U","EPHEMERIS_TYPE":"0","COUNTRY_CODE":"US","ECCENTRICITY":"0.00014360","NORAD_CAT_ID":"46549","DECAY_DATE":null,"ARG_OF_PERICENTER":"70.0644","TLE_LINE1":"1 46549U 20070T   22049.52848427  .00005366  00000-0  37870-3 0  9992","OBJECT_NAME":"STARLINK-1700","APOAPSIS":"548.157","PERIOD":"95.591","MEAN_MOTION":"15.06416651","RA_OF_ASC_NODE":"341.3158","SITE":"AFETR","SEMIMAJOR_AXIS":"6925.298","RCS_SIZE":"LARGE","OBJECT_TYPE":"PAYLOAD","INCLINATION":"53.0542","MEAN_ELEMENT_THEORY":"SGP4","MEAN_MOTION_DOT":"0.00005366","OBJECT_ID":"2020-070T","REV_AT_EPOCH":"7640","MEAN_ANOMALY":"290.0500","TLE_LINE2":"2 46549  53.0542 341.3158 0001436  70.0644 290.0500 15.06416651 76407","EPOCH":"2022-02-18T12:41:01.040928","GP_ID":"196292615","REF_FRAME":"TEME"},{"COUNTRY_CODE":"US","ECCENTRICITY":"0.00017630","NORAD_CAT_ID":"46550","EPHEMERIS_TYPE":"0","DECAY_DATE":null,"ARG_OF_PERICENTER":"57.8932","OBJECT_NAME":"STARLINK-1701","TLE_LINE1":"1 46550U 20070U   22049.84546607  .00002025  00000-0  15479-3 0  9994","APOAPSIS":"548.425","CENTER_NAME":"EARTH","FILE":"3307132","CLASSIFICATION_TYPE":"U","BSTAR":"0.00015479000000","TIME_SYSTEM":"UTC","LAUNCH_DATE":"2020-10-06","MEAN_MOTION_DDOT":"0.0000000000000","ELEMENT_SET_NO":"999","PERIAPSIS":"545.983","EPOCH":"2022-02-18T20:17:28.268448","REF_FRAME":"TEME","GP_ID":"196333675","OBJECT_ID":"2020-070U","MEAN_ANOMALY":"302.2228","REV_AT_EPOCH":"7645","TLE_LINE2":"2 46550  53.0555 339.9005 0001763  57.8932 302.2228 15.06403104 76450","RCS_SIZE":"LARGE","SEMIMAJOR_AXIS":"6925.339","INCLINATION":"53.0555","OBJECT_TYPE":"PAYLOAD","MEAN_ELEMENT_THEORY":"SGP4","MEAN_MOTION_DOT":"0.00002025","MEAN_MOTION":"15.06403104","PERIOD":"95.592","RA_OF_ASC_NODE":"339.9005","SITE":"AFETR"}];
